{
  "norad_id": 59330,
  "name": "STARLINK-31634",
  "history": [
    {
      "epoch": "2026-05-03T15:51:43.653888Z",
      "apogee_km": 483.879582370294,
      "perigee_km": 482.2136869837932,
      "latitude_deg": -3.477106483614548e-05,
      "longitude_deg": 137.350960741818,
      "height_km": 482.8380760947899,
      "semi_major_axis_km": 6861.183634677043,
      "eccentricity": 0.0001214,
      "inclination_deg": 43.0,
      "raan_deg": 236.8443,
      "arg_perigee_deg": 268.9754,
      "mean_anomaly_deg": 91.0958,
      "mean_motion_rev_day": 15.27580822
    },
    {
      "epoch": "2026-05-04T15:24:04.686624Z",
      "apogee_km": 484.05462858322517,
      "perigee_km": 482.06899764670925,
      "latitude_deg": 3.4354477803038488e-06,
      "longitude_deg": 137.75854217666313,
      "height_km": 482.88355971413165,
      "semi_major_axis_km": 6861.1988131149665,
      "eccentricity": 0.0001447,
      "inclination_deg": 42.9994,
      "raan_deg": 231.3062,
      "arg_perigee_deg": 267.3975,
      "mean_anomaly_deg": 92.6711,
      "mean_motion_rev_day": 15.27575753
    },
    {
      "epoch": "2026-05-05T14:56:24.368064Z",
      "apogee_km": 483.8006053235158,
      "perigee_km": 482.15256584025974,
      "latitude_deg": -2.0350701618139143e-05,
      "longitude_deg": 138.17080294650972,
      "height_km": 482.8663088778697,
      "semi_major_axis_km": 6861.1135855818875,
      "eccentricity": 0.0001201,
      "inclination_deg": 42.9992,
      "raan_deg": 225.7672,
      "arg_perigee_deg": 262.0967,
      "mean_anomaly_deg": 97.9748,
      "mean_motion_rev_day": 15.27604216
    },
    {
      "epoch": "2026-05-06T16:02:57.562656Z",
      "apogee_km": 483.9727006399962,
      "perigee_km": 482.24641100655117,
      "latitude_deg": 3.2660797086110585e-05,
      "longitude_deg": 114.59384562141042,
      "height_km": 482.7387415129159,
      "semi_major_axis_km": 6861.246555823273,
      "eccentricity": 0.0001258,
      "inclination_deg": 43.0002,
      "raan_deg": 219.8597,
      "arg_perigee_deg": 279.8342,
      "mean_anomaly_deg": 80.2368,
      "mean_motion_rev_day": 15.27559809
    },
    {
      "epoch": "2026-05-07T14:01:08.324832Z",
      "apogee_km": 484.0069291351174,
      "perigee_km": 482.1063784930102,
      "latitude_deg": -3.355233128270015e-05,
      "longitude_deg": 138.97746760918278,
      "height_km": 482.63134119494913,
      "semi_major_axis_km": 6861.1936538140635,
      "eccentricity": 0.0001385,
      "inclination_deg": 43.0008,
      "raan_deg": 214.6905,
      "arg_perigee_deg": 282.279,
      "mean_anomaly_deg": 77.7906,
      "mean_motion_rev_day": 15.27577476
    }
  ]
}